STARLINK-3354           
1 51146U 22005AU  23097.25409005  .00002851  00000+0  19714-3 0  9992
2 51146  53.2178  51.0207 0001248 106.4772 253.6357 15.08844397 67588
STARLINK-3352           
1 51147U 22005AV  23097.29733525  .00001963  00000+0  14140-3 0  9995
2 51147  53.2165  60.8258 0001295  91.6247 268.4893 15.08840897 67459
STARLINK-3359           
1 51148U 22005AW  23097.28725378  .00007045  00000+0  46029-3 0  9990
2 51148  53.2169  60.8820 0001249 107.5128 252.6001 15.08837467 67458
STARLINK-3360           
1 51149U 22005AX  23097.21637274  .00002350  00000+0  16570-3 0  9993
2 51149  53.2180  61.1876 0001578  87.4072 272.7101 15.08842561 67440
STARLINK-3357           
1 51150U 22005AY  23097.24033173  .00001686  00000+0  12399-3 0  9992
2 51150  53.2165  51.0926 0001189 107.9349 252.1773 15.08840447 67596
STARLINK-3361           
1 51151U 22005AZ  23097.40772958  .00007908  00000+0  51418-3 0  9990
2 51151  53.2172  60.3368 0001247  99.1799 260.9334 15.08854267 67476
STARLINK-3364           
1 51152U 22005BA  23097.34517573  .00001042  00000+0  83539-4 0  9997
2 51152  53.2181  60.6131 0001305  85.3936 274.7205 15.08840627 67467
USA 324                 
1 51280U 22006A   23096.03783881  .00000144  00000+0  00000+0 0  9991
2 51280   0.7011  94.0795 0002232 169.2865 342.6560  1.00535783  4391
USA 325                 
1 51281U 22006B   23095.87618921 -.00000357  00000+0  00000+0 0  9992
2 51281   0.0504 144.4047 0000527  29.8424  90.4877  1.00336301  4393
L-SAR 01A               
1 51284U 22007A   23097.52560412  .00000636  00000+0  74449-4 0  9993
2 51284  97.8110 105.6670 0001591  79.7876 280.3497 14.88423932 64932
ASCENT                  
1 51287U 21118E   23096.93160508 -.00000249  00000+0  00000+0 0  9992
2 51287   1.1911  93.4387 0002869 349.9586  11.1847  1.01291253  4506
ELSA-D CLIENT           
1 51288U 21022AQ  23097.24969696  .00008745  00000+0  51424-3 0  9995
2 51288  97.5021 356.2441 0015959 205.1252 154.9204 15.11794719 65888
CSG-2                   
1 51444U 22008A   23097.50322546  .00000906  00000+0  12033-3 0  9994
2 51444  97.8868 282.0005 0001400  80.2382 279.8987 14.82163176 63773
STARLINK-3167           
1 51460U 22010E   23097.22648959  .00003817  00000+0  25773-3 0  9992
2 51460  53.2175  31.1438 0001099 103.1875 256.9240 15.08847596 65670
STARLINK-3181           
1 51461U 22010F   23097.17865109  .00002225  00000+0  15785-3 0  9999
2 51461  53.2174  31.3601 0001085  87.4418 272.6698 15.08842996 65666
STARLINK-3166           
1 51462U 22010G   23097.24217147  .00012243  00000+0  78591-3 0  9996
2 51462  53.2173  31.0852 0001134  80.6779 279.4341 15.08842242 65676
STARLINK-3419           
1 51463U 22010H   23097.08297318  .00005069  00000+0  33635-3 0  9995
2 51463  53.2173  31.7935 0000930  35.4275 324.6778 15.08838859 65348
STARLINK-3189           
1 51464U 22010J   23097.23385116  .00004342  00000+0  29066-3 0  9993
2 51464  53.2179  31.1108 0001154  76.9706 283.1415 15.08846960 66170
STARLINK-3401           
1 51465U 22010K   23097.23017261  .00002753  00000+0  19097-3 0  9994
2 51465  53.2170  31.1293 0001223  88.2548 271.8584 15.08843154 66177
STARLINK-3178           
1 51467U 22010M   23097.21177562  .00002640  00000+0  18391-3 0  9996
2 51467  53.2183  31.2104 0001312 101.7377 258.3763 15.08841169 65368
STARLINK-3174           
1 51468U 22010N   23097.22377110  .00002404  00000+0  16909-3 0  9990
2 51468  53.2176  31.1680 0001313  87.9866 272.1276 15.08843029 65368
STARLINK-3182           
1 51469U 22010P   23097.10505279  .00004252  00000+0  28505-3 0  9995
2 51469  53.2176  31.6905 0001139 107.6981 252.4136 15.08844761 65650
STARLINK-3415           
1 51472U 22010S   23097.21913144  .00000619  00000+0  56969-4 0  9994
2 51472  53.2178  31.1782 0001305  82.7859 277.3282 15.08844017 65670
COSMOS 2553             
1 51511U 22011A   23097.75065443 -.00000034  00000+0  42779-4 0  9994
2 51511  67.0924 311.2581 0003667 275.8172  84.2353 11.32875567 48314
ONEWEB-0410             
1 51622U 22012A   23097.38085117  .00000047  00000+0  88343-4 0  9997
2 51622  87.9172 237.6652 0001308  49.2051 310.9194 13.17650013 60040
ONEWEB-0411             
1 51623U 22012B   23097.50039967 -.00000676  00000+0 -19720-2 0  9995
2 51623  87.8714 268.0394 0001938  81.2430 278.8916 13.10373262 56498
ONEWEB-0415             
1 51624U 22012C   23097.49728468 -.00000581  00000+0 -17010-2 0  9990
2 51624  87.8756 268.0391 0002205  91.3558 268.7822 13.10369165 56494
ONEWEB-0416             
1 51625U 22012D   23097.50820676 -.00000498  00000+0 -14617-2 0  9994
2 51625  87.8759 268.0262 0001785 101.1459 258.9869 13.10373995 56530
ONEWEB-0422             
1 51626U 22012E   23097.46571380 -.00000020  00000+0 -83874-4 0  9999
2 51626  87.9134 237.6571 0001909 129.6261 230.5040 13.17652611 60161
ONEWEB-0423             
1 51627U 22012F   23097.38308119  .00000063  00000+0  12799-3 0  9991
2 51627  87.9114 237.6095 0001671  93.8521 266.2801 13.17651208 60047
ONEWEB-0425             
1 51628U 22012G   23097.51753262 -.00000451  00000+0 -13292-2 0  9991
2 51628  87.8757 268.0220 0001034  93.2043 266.9203 13.10374970 56537
ONEWEB-0428             
1 51629U 22012H   23097.49883487 -.00000703  00000+0 -20498-2 0  9998
2 51629  87.8754 268.0346 0001916 112.3879 247.7451 13.10374716 56498
ONEWEB-0431             
1 51630U 22012J   23097.52691646  .00000366  00000+0  10110-2 0  9991
2 51630  87.8745 268.0277 0002572  98.9999 261.1419 13.10376974 56553
ONEWEB-0434             
1 51631U 22012K   23097.52067922  .00000144  00000+0  37646-3 0  9994
2 51631  87.8766 268.0374 0001770 110.3352 249.7965 13.10375043 56538
ONEWEB-0435             
1 51632U 22012L   23097.45366887  .00000587  00000+0  16452-2 0  9991
2 51632  87.8757 268.0435 0002081 115.2823 244.8520 13.10374443 56514
ONEWEB-0436             
1 51633U 22012M   23097.45454938 -.00000028  00000+0 -10435-3 0  9995
2 51633  87.9173 237.6449 0001758 111.6793 248.4526 13.17651042 60039
ONEWEB-0438             
1 51634U 22012N   23097.51285998 -.00000450  00000+0 -13264-2 0  9992
2 51634  87.8758 268.0318 0001451  92.4425 267.6869 13.10375208 56554
ONEWEB-0439             
1 51635U 22012P   23097.51598309 -.00000258  00000+0 -77628-3 0  9997
2 51635  87.8737 268.0262 0001737  97.9326 262.1999 13.10377218 56532
ONEWEB-0442             
1 51636U 22012Q   23097.44561948 -.00000069  00000+0 -21038-3 0  9993
2 51636  87.9142 237.6358 0001801  65.6481 294.4838 13.17648510 60020
ONEWEB-0443             
1 51637U 22012R   23097.46348002 -.00000023  00000+0 -93268-4 0  9995
2 51637  87.9171 237.6314 0001621 125.1818 234.9465 13.17651354 60071
ONEWEB-0444             
1 51638U 22012S   23097.50662811 -.00000639  00000+0 -18665-2 0  9997
2 51638  87.8760 268.0399 0001727 108.0322 252.0994 13.10375597 56543
ONEWEB-0445             
1 51639U 22012T   23097.52847640  .00000534  00000+0  14937-2 0  9995
2 51639  87.8742 268.0438 0001836  76.5296 283.6036 13.10376565 56552
ONEWEB-0446             
1 51640U 22012U   23097.50506572 -.00000531  00000+0 -15566-2 0  9999
2 51640  87.8757 268.0357 0001944  92.1586 267.9764 13.10368087 56537
ONEWEB-0448             
1 51641U 22012V   23097.50974418 -.00000391  00000+0 -11578-2 0  9991
2 51641  87.8757 268.0371 0001631 107.6473 252.4833 13.10376459 56509
ONEWEB-0449             
1 51642U 22012W   23097.51441673 -.00000530  00000+0 -15559-2 0  9993
2 51642  87.8761 268.0349 0001469  91.3216 268.8080 13.10374873 56517
ONEWEB-0451             
1 51643U 22012X   23097.45008135  .00000029  00000+0  41652-4 0  9995
2 51643  87.9138 237.6559 0001479 111.5175 248.6114 13.17650843 60017
ONEWEB-0452             
1 51644U 22012Y   23097.44785100  .00000019  00000+0  16796-4 0  9999
2 51644  87.9140 237.6365 0001102  96.3101 263.8156 13.17648955 60025
ONEWEB-0455             
1 51645U 22012Z   23097.46087030  .00000483  00000+0  20877-3 0  9998
2 51645  87.5305 240.5163 0015764 326.5773  33.4421 14.22454935 60213
ONEWEB-0456             
1 51646U 22012AA  23097.52377030  .00000301  00000+0  82578-3 0  9993
2 51646  87.8744 268.0444 0002044  99.1935 260.9424 13.10382079 56558
ONEWEB-0457             
1 51647U 22012AB  23097.50195208 -.00000635  00000+0 -18544-2 0  9990
2 51647  87.8758 268.0287 0001332  75.9984 284.1292 13.10375712 56551
ONEWEB-0458             
1 51648U 22012AC  23097.52223201  .00000260  00000+0  70745-3 0  9992
2 51648  87.8761 268.0340 0001670 110.7088 249.4219 13.10376991 56513
ONEWEB-0461             
1 51649U 22012AD  23097.46795386 -.00000105  00000+0 -30409-3 0  9997
2 51649  87.9190 237.5531 0001488  91.6230 268.5072 13.17650146 60245
ONEWEB-0463             
1 51650U 22012AE  23097.45232776  .00000129  00000+0  30027-3 0  9997
2 51650  87.9129 237.6526 0001593  91.8068 268.3246 13.17649190 60026
ONEWEB-0464             
1 51651U 22012AF  23097.51910184  .00000091  00000+0  22571-3 0  9994
2 51651  87.8761 268.0232 0002083 110.1856 249.9496 13.10369979 56535
ONEWEB-0468             
1 51652U 22012AG  23097.52532709  .00000396  00000+0  10980-2 0  9997
2 51652  87.8737 268.0290 0001624 100.4026 259.7285 13.10378279 56510
ONEWEB-0473             
1 51653U 22012AH  23097.51130680 -.00000375  00000+0 -11102-2 0  9995
2 51653  87.8760 268.0232 0001713 106.3983 253.7333 13.10377333 56517
ONEWEB-0474             
1 51654U 22012AJ  23097.50350753 -.00000697  00000+0 -20339-2 0  9999
2 51654  87.8725 267.9997 0001894 111.4621 248.6708 13.10374810 56506
ONEWEB-0475             
1 51655U 22012AK  23097.38531445  .00000038  00000+0  63917-4 0  9993
2 51655  87.9127 237.6415 0001512 116.0096 244.1191 13.17651161 60031
EOS-4                   
1 51656U 22013A   23097.53899028 -.00000267  00000+0 -11576-4 0  9996
2 51656  97.5165 105.7192 0002124 108.9479   7.6616 15.12722671 63111
